IRIDIUM 63              
1 25286U 98021B   25342.58763563  .00000702  00000+0  23150-3 0  9994
2 25286  86.3986   8.9571 0002402  90.2922 269.8551 14.36731244448880
IRIDIUM 69              
1 25319U 98026A   25342.61855217  .00001037  00000+0  31535-3 0  9996
2 25319  86.3981  21.6811 0003655 132.3526 227.7984 14.41212140448181
IRIDIUM 71              
1 25320U 98026B   25342.60561535  .00000550  00000+0  16409-3 0  9996
2 25320  86.3980  16.3596 0001486 159.2213 200.9048 14.41314742448718
IRIDIUM 73              
1 25344U 98032C   25342.50609481  .00001301  00000+0  31734-3 0  9994
2 25344  86.4402 332.7887 0002866  97.0069 263.1462 14.51981645455850
IRIDIUM 82              
1 25467U 98051A   25342.63579556  .00047361  00000+0  89256-3 0  9992
2 25467  86.3608  23.1740 0061758 351.4202   8.5993 15.46175810450762
