<?xml version="1.0" encoding="UTF-8"?>
<ndm xmlns:xsi="http://www.w3.org/2001/XMLSchema-instance" xsi:noNamespaceSchemaLocation="https://sanaregistry.org/r/ndmxml_unqualified/ndmxml-2.0.0-master-2.0.xsd">
<omm id="CCSDS_OMM_VERS" version="2.0">
<header><CREATION_DATE/><ORIGINATOR/></header><body><segment><metadata><OBJECT_NAME>IRIDIUM 63</OBJECT_NAME><OBJECT_ID>1998-021B</OBJECT_ID><CENTER_NAME>EARTH</CENTER_NAME><REF_FRAME>TEME</REF_FRAME><TIME_SYSTEM>UTC</TIME_SYSTEM><MEAN_ELEMENT_THEORY>SGP4</MEAN_ELEMENT_THEORY></metadata><data><meanElements><EPOCH>2025-12-08T14:06:11.718432</EPOCH><MEAN_MOTION>14.36731244</MEAN_MOTION><ECCENTRICITY>.00024026</ECCENTRICITY><INCLINATION>86.3986</INCLINATION><RA_OF_ASC_NODE>8.9571</RA_OF_ASC_NODE><ARG_OF_PERICENTER>90.2922</ARG_OF_PERICENTER><MEAN_ANOMALY>269.8551</MEAN_ANOMALY></meanElements><tleParameters><EPHEMERIS_TYPE>0</EPHEMERIS_TYPE><CLASSIFICATION_TYPE>U</CLASSIFICATION_TYPE><NORAD_CAT_ID>25286</NORAD_CAT_ID><ELEMENT_SET_NO>999</ELEMENT_SET_NO><REV_AT_EPOCH>44888</REV_AT_EPOCH><BSTAR>.23149536E-3</BSTAR><MEAN_MOTION_DOT>.702E-5</MEAN_MOTION_DOT><MEAN_MOTION_DDOT>0</MEAN_MOTION_DDOT></tleParameters></data></segment></body></omm>
<omm id="CCSDS_OMM_VERS" version="2.0">
<header><CREATION_DATE/><ORIGINATOR/></header><body><segment><metadata><OBJECT_NAME>IRIDIUM 69</OBJECT_NAME><OBJECT_ID>1998-026A</OBJECT_ID><CENTER_NAME>EARTH</CENTER_NAME><REF_FRAME>TEME</REF_FRAME><TIME_SYSTEM>UTC</TIME_SYSTEM><MEAN_ELEMENT_THEORY>SGP4</MEAN_ELEMENT_THEORY></metadata><data><meanElements><EPOCH>2025-12-08T14:50:42.907488</EPOCH><MEAN_MOTION>14.41212140</MEAN_MOTION><ECCENTRICITY>.00036557</ECCENTRICITY><INCLINATION>86.3981</INCLINATION><RA_OF_ASC_NODE>21.6811</RA_OF_ASC_NODE><ARG_OF_PERICENTER>132.3526</ARG_OF_PERICENTER><MEAN_ANOMALY>227.7984</MEAN_ANOMALY></meanElements><tleParameters><EPHEMERIS_TYPE>0</EPHEMERIS_TYPE><CLASSIFICATION_TYPE>U</CLASSIFICATION_TYPE><NORAD_CAT_ID>25319</NORAD_CAT_ID><ELEMENT_SET_NO>999</ELEMENT_SET_NO><REV_AT_EPOCH>44818</REV_AT_EPOCH><BSTAR>.31535043E-3</BSTAR><MEAN_MOTION_DOT>.1037E-4</MEAN_MOTION_DOT><MEAN_MOTION_DDOT>0</MEAN_MOTION_DDOT></tleParameters></data></segment></body></omm>
<omm id="CCSDS_OMM_VERS" version="2.0">
<header><CREATION_DATE/><ORIGINATOR/></header><body><segment><metadata><OBJECT_NAME>IRIDIUM 71</OBJECT_NAME><OBJECT_ID>1998-026B</OBJECT_ID><CENTER_NAME>EARTH</CENTER_NAME><REF_FRAME>TEME</REF_FRAME><TIME_SYSTEM>UTC</TIME_SYSTEM><MEAN_ELEMENT_THEORY>SGP4</MEAN_ELEMENT_THEORY></metadata><data><meanElements><EPOCH>2025-12-08T14:32:05.166240</EPOCH><MEAN_MOTION>14.41314742</MEAN_MOTION><ECCENTRICITY>.00014865</ECCENTRICITY><INCLINATION>86.3980</INCLINATION><RA_OF_ASC_NODE>16.3596</RA_OF_ASC_NODE><ARG_OF_PERICENTER>159.2213</ARG_OF_PERICENTER><MEAN_ANOMALY>200.9048</MEAN_ANOMALY></meanElements><tleParameters><EPHEMERIS_TYPE>0</EPHEMERIS_TYPE><CLASSIFICATION_TYPE>U</CLASSIFICATION_TYPE><NORAD_CAT_ID>25320</NORAD_CAT_ID><ELEMENT_SET_NO>999</ELEMENT_SET_NO><REV_AT_EPOCH>44871</REV_AT_EPOCH><BSTAR>.16409063E-3</BSTAR><MEAN_MOTION_DOT>.55E-5</MEAN_MOTION_DOT><MEAN_MOTION_DDOT>0</MEAN_MOTION_DDOT></tleParameters></data></segment></body></omm>
<omm id="CCSDS_OMM_VERS" version="2.0">
<header><CREATION_DATE/><ORIGINATOR/></header><body><segment><metadata><OBJECT_NAME>IRIDIUM 73</OBJECT_NAME><OBJECT_ID>1998-032C</OBJECT_ID><CENTER_NAME>EARTH</CENTER_NAME><REF_FRAME>TEME</REF_FRAME><TIME_SYSTEM>UTC</TIME_SYSTEM><MEAN_ELEMENT_THEORY>SGP4</MEAN_ELEMENT_THEORY></metadata><data><meanElements><EPOCH>2025-12-08T12:08:46.591584</EPOCH><MEAN_MOTION>14.51981645</MEAN_MOTION><ECCENTRICITY>.0002866</ECCENTRICITY><INCLINATION>86.4402</INCLINATION><RA_OF_ASC_NODE>332.7887</RA_OF_ASC_NODE><ARG_OF_PERICENTER>97.0069</ARG_OF_PERICENTER><MEAN_ANOMALY>263.1462</MEAN_ANOMALY></meanElements><tleParameters><EPHEMERIS_TYPE>0</EPHEMERIS_TYPE><CLASSIFICATION_TYPE>U</CLASSIFICATION_TYPE><NORAD_CAT_ID>25344</NORAD_CAT_ID><ELEMENT_SET_NO>999</ELEMENT_SET_NO><REV_AT_EPOCH>45585</REV_AT_EPOCH><BSTAR>.31733609E-3</BSTAR><MEAN_MOTION_DOT>.1301E-4</MEAN_MOTION_DOT><MEAN_MOTION_DDOT>0</MEAN_MOTION_DDOT></tleParameters></data></segment></body></omm>
<omm id="CCSDS_OMM_VERS" version="2.0">
<header><CREATION_DATE/><ORIGINATOR/></header><body><segment><metadata><OBJECT_NAME>IRIDIUM 82</OBJECT_NAME><OBJECT_ID>1998-051A</OBJECT_ID><CENTER_NAME>EARTH</CENTER_NAME><REF_FRAME>TEME</REF_FRAME><TIME_SYSTEM>UTC</TIME_SYSTEM><MEAN_ELEMENT_THEORY>SGP4</MEAN_ELEMENT_THEORY></metadata><data><meanElements><EPOCH>2025-12-08T15:15:32.736384</EPOCH><MEAN_MOTION>15.46175810</MEAN_MOTION><ECCENTRICITY>.00617585</ECCENTRICITY><INCLINATION>86.3608</INCLINATION><RA_OF_ASC_NODE>23.1740</RA_OF_ASC_NODE><ARG_OF_PERICENTER>351.4202</ARG_OF_PERICENTER><MEAN_ANOMALY>8.5993</MEAN_ANOMALY></meanElements><tleParameters><EPHEMERIS_TYPE>0</EPHEMERIS_TYPE><CLASSIFICATION_TYPE>U</CLASSIFICATION_TYPE><NORAD_CAT_ID>25467</NORAD_CAT_ID><ELEMENT_SET_NO>999</ELEMENT_SET_NO><REV_AT_EPOCH>45076</REV_AT_EPOCH><BSTAR>.89256446E-3</BSTAR><MEAN_MOTION_DOT>.47361E-3</MEAN_MOTION_DOT><MEAN_MOTION_DDOT>0</MEAN_MOTION_DDOT></tleParameters></data></segment></body></omm>
</ndm>
